GPS BIII-1  (PRN 04)    
1 43873U 18109A   25334.58913527  .00000033  00000+0  00000+0 0  9995
2 43873  55.5595 100.0271 0037182 194.4183 176.0960  2.00553142 51099
GPS BIII-2  (PRN 18)    
1 44506U 19056A   25334.72267292 -.00000053  00000+0  00000+0 0  9991
2 44506  55.7257 339.0309 0057804 198.3597 165.0358  2.00565588 46091
GPS BIII-3  (PRN 23)    
1 45854U 20041A   25334.79993905 -.00000065  00000+0  00000+0 0  9991
2 45854  56.5386  36.6517 0060224 202.8806 160.5748  2.00561840 40066
GPS BIII-4  (PRN 14)    
1 46826U 20078A   25316.12603230 -.00000034  00000+0  00000+0 0  9993
2 46826  54.0223 219.5836 0063911 203.4985 326.7754  2.00567032 37154
GPS BIII-5  (PRN 11)    
1 48859U 21054A   25334.71692133 -.00000055  00000+0  00000+0 0  9994
2 48859  55.2605 340.4377 0024650 232.9586 227.1950  2.00553931 32772
GPS BIII-6  (PRN 28)    
1 55268U 23009A   25334.02266569  .00000129  00000+0  00000+0 0  9993
2 55268  55.1054 156.3454 0003482 359.6796   1.4566  2.00556632 21259
GPS BIII-7  (PRN 01)    
1 62339U 24242A   25330.92836440 -.00000056  00000+0  00000+0 0  9996
2 62339  54.9285 342.3820 0011414 343.1444  20.6436  2.00567458  7201
GPS BIII-8  (PRN 21)    
1 64202U 25116A   25331.65075464 -.00000060  00000+0  00000+0 0  9995
2 64202  55.0944  39.2516 0004863 304.4210  50.9436  2.00559190  3825
