{
  "type": "FeatureCollection",
  "features": [
    {
      "type": "Feature",
      "properties": {
        "norad_id": 43873,
        "name": "GPS BIII-1  (PRN 04)",
        "group": "gps-ops",
        "lat": NaN,
        "lon": NaN,
        "alt_km": NaN,
        "timestamp": "2025-12-01T02:47:00.010690+00:00",
        "meta": {
          "OBJECT_NAME": "GPS BIII-1  (PRN 04)",
          "OBJECT_ID": "2018-109A",
          "EPOCH": "2025-11-30T14:08:21.287328",
          "MEAN_MOTION": 2.00553142,
          "ECCENTRICITY": 0.0037182,
          "INCLINATION": 55.5595,
          "RA_OF_ASC_NODE": 100.0271,
          "ARG_OF_PERICENTER": 194.4183,
          "MEAN_ANOMALY": 176.096,
          "EPHEMERIS_TYPE": 0,
          "CLASSIFICATION_TYPE": "U",
          "NORAD_CAT_ID": 43873,
          "ELEMENT_SET_NO": 999,
          "REV_AT_EPOCH": 5109,
          "BSTAR": 0,
          "MEAN_MOTION_DOT": 3.3e-07,
          "MEAN_MOTION_DDOT": 0
        }
      },
      "geometry": {
        "type": "Point",
        "coordinates": [
          NaN,
          NaN
        ]
      }
    },
    {
      "type": "Feature",
      "properties": {
        "norad_id": 44506,
        "name": "GPS BIII-2  (PRN 18)",
        "group": "gps-ops",
        "lat": NaN,
        "lon": NaN,
        "alt_km": NaN,
        "timestamp": "2025-12-01T02:47:00.010708+00:00",
        "meta": {
          "OBJECT_NAME": "GPS BIII-2  (PRN 18)",
          "OBJECT_ID": "2019-056A",
          "EPOCH": "2025-11-30T17:20:38.940288",
          "MEAN_MOTION": 2.00565588,
          "ECCENTRICITY": 0.0057804,
          "INCLINATION": 55.7257,
          "RA_OF_ASC_NODE": 339.0309,
          "ARG_OF_PERICENTER": 198.3597,
          "MEAN_ANOMALY": 165.0358,
          "EPHEMERIS_TYPE": 0,
          "CLASSIFICATION_TYPE": "U",
          "NORAD_CAT_ID": 44506,
          "ELEMENT_SET_NO": 999,
          "REV_AT_EPOCH": 4609,
          "BSTAR": 0,
          "MEAN_MOTION_DOT": -5.3e-07,
          "MEAN_MOTION_DDOT": 0
        }
      },
      "geometry": {
        "type": "Point",
        "coordinates": [
          NaN,
          NaN
        ]
      }
    },
    {
      "type": "Feature",
      "properties": {
        "norad_id": 45854,
        "name": "GPS BIII-3  (PRN 23)",
        "group": "gps-ops",
        "lat": NaN,
        "lon": NaN,
        "alt_km": NaN,
        "timestamp": "2025-12-01T02:47:00.010726+00:00",
        "meta": {
          "OBJECT_NAME": "GPS BIII-3  (PRN 23)",
          "OBJECT_ID": "2020-041A",
          "EPOCH": "2025-11-30T19:11:54.733920",
          "MEAN_MOTION": 2.0056184,
          "ECCENTRICITY": 0.0060224,
          "INCLINATION": 56.5386,
          "RA_OF_ASC_NODE": 36.6517,
          "ARG_OF_PERICENTER": 202.8806,
          "MEAN_ANOMALY": 160.5748,
          "EPHEMERIS_TYPE": 0,
          "CLASSIFICATION_TYPE": "U",
          "NORAD_CAT_ID": 45854,
          "ELEMENT_SET_NO": 999,
          "REV_AT_EPOCH": 4006,
          "BSTAR": 0,
          "MEAN_MOTION_DOT": -6.5e-07,
          "MEAN_MOTION_DDOT": 0
        }
      },
      "geometry": {
        "type": "Point",
        "coordinates": [
          NaN,
          NaN
        ]
      }
    },
    {
      "type": "Feature",
      "properties": {
        "norad_id": 46826,
        "name": "GPS BIII-4  (PRN 14)",
        "group": "gps-ops",
        "lat": NaN,
        "lon": NaN,
        "alt_km": NaN,
        "timestamp": "2025-12-01T02:47:00.010744+00:00",
        "meta": {
          "OBJECT_NAME": "GPS BIII-4  (PRN 14)",
          "OBJECT_ID": "2020-078A",
          "EPOCH": "2025-11-12T03:01:29.190720",
          "MEAN_MOTION": 2.00567032,
          "ECCENTRICITY": 0.0063911,
          "INCLINATION": 54.0223,
          "RA_OF_ASC_NODE": 219.5836,
          "ARG_OF_PERICENTER": 203.4985,
          "MEAN_ANOMALY": 326.7754,
          "EPHEMERIS_TYPE": 0,
          "CLASSIFICATION_TYPE": "U",
          "NORAD_CAT_ID": 46826,
          "ELEMENT_SET_NO": 999,
          "REV_AT_EPOCH": 3715,
          "BSTAR": 0,
          "MEAN_MOTION_DOT": -3.4e-07,
          "MEAN_MOTION_DDOT": 0
        }
      },
      "geometry": {
        "type": "Point",
        "coordinates": [
          NaN,
          NaN
        ]
      }
    },
    {
      "type": "Feature",
      "properties": {
        "norad_id": 48859,
        "name": "GPS BIII-5  (PRN 11)",
        "group": "gps-ops",
        "lat": NaN,
        "lon": NaN,
        "alt_km": NaN,
        "timestamp": "2025-12-01T02:47:00.010761+00:00",
        "meta": {
          "OBJECT_NAME": "GPS BIII-5  (PRN 11)",
          "OBJECT_ID": "2021-054A",
          "EPOCH": "2025-11-30T17:12:22.002912",
          "MEAN_MOTION": 2.00553931,
          "ECCENTRICITY": 0.002465,
          "INCLINATION": 55.2605,
          "RA_OF_ASC_NODE": 340.4377,
          "ARG_OF_PERICENTER": 232.9586,
          "MEAN_ANOMALY": 227.195,
          "EPHEMERIS_TYPE": 0,
          "CLASSIFICATION_TYPE": "U",
          "NORAD_CAT_ID": 48859,
          "ELEMENT_SET_NO": 999,
          "REV_AT_EPOCH": 3277,
          "BSTAR": 0,
          "MEAN_MOTION_DOT": -5.5e-07,
          "MEAN_MOTION_DDOT": 0
        }
      },
      "geometry": {
        "type": "Point",
        "coordinates": [
          NaN,
          NaN
        ]
      }
    },
    {
      "type": "Feature",
      "properties": {
        "norad_id": 55268,
        "name": "GPS BIII-6  (PRN 28)",
        "group": "gps-ops",
        "lat": NaN,
        "lon": NaN,
        "alt_km": NaN,
        "timestamp": "2025-12-01T02:47:00.010780+00:00",
        "meta": {
          "OBJECT_NAME": "GPS BIII-6  (PRN 28)",
          "OBJECT_ID": "2023-009A",
          "EPOCH": "2025-11-30T00:32:38.315616",
          "MEAN_MOTION": 2.00556632,
          "ECCENTRICITY": 0.00034826,
          "INCLINATION": 55.1054,
          "RA_OF_ASC_NODE": 156.3454,
          "ARG_OF_PERICENTER": 359.6796,
          "MEAN_ANOMALY": 1.4566,
          "EPHEMERIS_TYPE": 0,
          "CLASSIFICATION_TYPE": "U",
          "NORAD_CAT_ID": 55268,
          "ELEMENT_SET_NO": 999,
          "REV_AT_EPOCH": 2125,
          "BSTAR": 0,
          "MEAN_MOTION_DOT": 1.29e-06,
          "MEAN_MOTION_DDOT": 0
        }
      },
      "geometry": {
        "type": "Point",
        "coordinates": [
          NaN,
          NaN
        ]
      }
    },
    {
      "type": "Feature",
      "properties": {
        "norad_id": 62339,
        "name": "GPS BIII-7  (PRN 01)",
        "group": "gps-ops",
        "lat": NaN,
        "lon": NaN,
        "alt_km": NaN,
        "timestamp": "2025-12-01T02:47:00.010799+00:00",
        "meta": {
          "OBJECT_NAME": "GPS BIII-7  (PRN 01)",
          "OBJECT_ID": "2024-242A",
          "EPOCH": "2025-11-26T22:16:50.684160",
          "MEAN_MOTION": 2.00567458,
          "ECCENTRICITY": 0.0011414,
          "INCLINATION": 54.9285,
          "RA_OF_ASC_NODE": 342.382,
          "ARG_OF_PERICENTER": 343.1444,
          "MEAN_ANOMALY": 20.6436,
          "EPHEMERIS_TYPE": 0,
          "CLASSIFICATION_TYPE": "U",
          "NORAD_CAT_ID": 62339,
          "ELEMENT_SET_NO": 999,
          "REV_AT_EPOCH": 720,
          "BSTAR": 0,
          "MEAN_MOTION_DOT": -5.6e-07,
          "MEAN_MOTION_DDOT": 0
        }
      },
      "geometry": {
        "type": "Point",
        "coordinates": [
          NaN,
          NaN
        ]
      }
    },
    {
      "type": "Feature",
      "properties": {
        "norad_id": 64202,
        "name": "GPS BIII-8  (PRN 21)",
        "group": "gps-ops",
        "lat": NaN,
        "lon": NaN,
        "alt_km": NaN,
        "timestamp": "2025-12-01T02:47:00.010817+00:00",
        "meta": {
          "OBJECT_NAME": "GPS BIII-8  (PRN 21)",
          "OBJECT_ID": "2025-116A",
          "EPOCH": "2025-11-27T15:37:05.200896",
          "MEAN_MOTION": 2.0055919,
          "ECCENTRICITY": 0.00048631,
          "INCLINATION": 55.0944,
          "RA_OF_ASC_NODE": 39.2516,
          "ARG_OF_PERICENTER": 304.421,
          "MEAN_ANOMALY": 50.9436,
          "EPHEMERIS_TYPE": 0,
          "CLASSIFICATION_TYPE": "U",
          "NORAD_CAT_ID": 64202,
          "ELEMENT_SET_NO": 999,
          "REV_AT_EPOCH": 382,
          "BSTAR": 0,
          "MEAN_MOTION_DOT": -6e-07,
          "MEAN_MOTION_DDOT": 0
        }
      },
      "geometry": {
        "type": "Point",
        "coordinates": [
          NaN,
          NaN
        ]
      }
    }
  ]
}